CZ-2D R/B               
1 28738U 05024B   26169.04810277  .00050783  00000+0  42868-3 0  9995
2 28738  97.3481 188.5194 0003238  51.8384 308.3169 15.69638082155473
ALOS (DAICHI)           
1 28931U 06002A   26168.83924325  .00000853  00000+0  15036-3 0  9993
2 28931  98.1323 124.4045 0001428  56.9447 303.1896 14.70051683 88192
H-2A R/B                
1 28932U 06002B   26168.97734273  .00006121  00000+0  29498-3 0  9991
2 28932  98.2568 324.8773 0049603 259.5476 100.0164 15.18069313109647
RESURS-DK 1             
1 29228U 06021A   26168.89470233  .00001805  00000+0  10744-3 0  9993
2 29228  69.9330 337.7217 0006881 291.3042  68.7389 15.13220954102689
CZ-4B R/B               
1 29507U 06046C   26169.10990879  .00002898  00000+0  14516-3 0  9992
2 29507  97.5449 213.7143 0030972 279.3719  80.4013 15.17789199 75277
CZ-2C R/B               
1 31114U 07010B   26169.25754914  .00000065  00000+0  48991-4 0  9994
2 31114  98.4100 277.5560 0058955   3.0175 357.1347 14.20276364993998
COSMO-SKYMED 1          
1 31598U 07023A   26169.27124197  .00002259  00000+0  20098-3 0  9994
2 31598  97.8848   1.1359 0001376  98.3961 261.7417 14.97103986 29955
COSMOS 2428             
1 31792U 07029A   26168.92244320 -.00000107  00000+0 -31605-4 0  9997
2 31792  70.9369 352.9338 0007123 133.5634 226.6080 14.12928047978252
SL-16 R/B               
1 31793U 07029B   26168.89773937  .00000073  00000+0  62559-4 0  9997
2 31793  70.9769 321.7341 0002341 261.7876 213.2383 14.14855304979542
KORONAS-FOTON           
1 33504U 09003A   26169.04954201  .00007965  00000+0  16359-3 0  9999
2 33504  82.4286 171.3600 0011793 144.6945 215.5087 15.45735570961230
CZ-2C R/B               
1 37731U 11030B   26168.85005079  .00001036  00000+0  13596-3 0  9999
2 37731  97.8655 124.2242 0053012  25.8486  27.7673 14.81472998804922
H-2A R/B                
1 38341U 12025E   26168.89279690  .00002308  00000+0  20958-3 0  9991
2 38341  98.4832 144.0966 0043570 347.0252  12.9842 14.95724294763196
SHIJIAN-16 (SJ-16)      
1 39358U 13057A   26169.31183370  .00000175  00000+0  19821-4 0  9991
2 39358  74.9726 354.5527 0016792 228.1213 131.8544 14.92605748686518
SL-4 R/B                
1 39679U 14021B   26168.58232912  .00009116  00000+0  19045-3 0  9995
2 39679  51.6039 208.8354 0091220 107.4106 253.6879 15.41962162671677
ALOS-2                  
1 39766U 14029A   26169.28893001  .00000856  00000+0  12148-3 0  9999
2 39766  97.9226 266.4363 0001633  91.2515 268.8883 14.79471302651748
YAOGAN-29               
1 41038U 15069A   26169.32476782  .00000567  00000+0  76290-4 0  9995
2 41038  98.0021 197.9598 0002601  53.2859 306.8593 14.83087760570793
ASTRO-H (HITOMI)        
1 41337U 16012A   26169.15761898  .00002022  00000+0  11397-3 0  9996
2 41337  30.9997  67.9195 0009792 263.4058  96.5466 15.10514071567435
HXMT (HUIYAN)           
1 42758U 17034A   26169.25258256  .00002008  00000+0  10619-3 0  9999
2 42758  43.0125 177.1085 0030720 154.0537 206.1859 15.18481812497829
SAOCOM 1A               
1 43641U 18076A   26169.28372038  .00000564  00000+0  77471-4 0  9991
2 43641  97.8877 356.0159 0001594  79.8851 280.2542 14.82149813416265
H-2A R/B                
1 43682U 18084L   26169.29389408  .00016095  00000+0  33794-3 0  9990
2 43682  98.8569  48.4252 0023412  36.9106 323.3744 15.45189421421296
SAOCOM 1B               
1 46265U 20059A   26169.31487493 -.00000369  00000+0 -39824-4 0  9991
2 46265  97.8880 355.1414 0001607  82.3301 277.8095 14.82144943313655
CSS (TIANHE)            
1 48274U 21035A   26169.19275359  .00019911  00000+0  23482-3 0  9993
2 48274  41.4698 315.8819 0007397  85.5010 274.6674 15.60850984293320
COSMOS 2550             
1 48865U 21056A   26168.93698449  .00006747  00000+0  21059-3 0  9993
2 48865  67.1435  97.6381 0008342 268.6108  91.4090 15.33847751278836
CZ-2C R/B               
1 52794U 22058K   26169.00985524  .00032429  00000+0  36022-3 0  9996
2 52794  50.1843 159.2367 0032480 271.3973  88.3280 15.61906376225778
CZ-2C R/B               
1 54039U 22132E   26168.98022078  .00051342  00000+0  39709-3 0  9995
2 54039  97.2896 176.0396 0016032  81.6854 278.6226 15.71573180206076
GSLV R/B                
1 54149U 22138AN  26168.91977863  .00002282  00000+0  19356-3 0  9992
2 54149  87.3808 132.7384 0022985 141.1738 219.1150 14.97260846198923
XRISM                   
1 57800U 23137A   26168.91659850  .00004046  00000+0  22132-3 0  9998
2 57800  31.0032 354.8773 0007954 331.0868  28.9330 15.12472233152971
ACS3                    
1 59588U 24077B   26168.77976005  .00037503  00000+0  27551-1 0  9997
2 59588  97.1683  87.4358 0076618  63.0470 297.8496 13.94046414108127
CZ-8A R/B               
1 66004U 25231K   26169.03027022 -.00000022  00000+0  50504-4 0  9991
2 66004  50.0054  35.7291 0116486 226.9752 132.1360 14.30155119 35068
SZ-21 MODULE            
1 66515U 25246C   26168.53256850  .00038762  00000+0  23828-3 0  9990
2 66515  41.4742 305.1743 0006303 350.6233   9.4493 15.76430582 33796

ISS (ZARYA)             
1 25544U 98067A   26169.15704105  .00009674  00000+0  18166-3 0  9997
2 25544  51.6334 295.2921 0004743 200.3344 159.7456 15.49293017571908
POISK                   
1 36086U 09060A   26169.15704105  .00009674  00000+0  18166-3 0  9995
2 36086  51.6334 295.2921 0004743 200.3344 159.7456 15.49293017571091
CSS (TIANHE)            
1 48274U 21035A   26169.19275359  .00019911  00000+0  23482-3 0  9993
2 48274  41.4698 315.8819 0007397  85.5010 274.6674 15.60850984293320
ISS (NAUKA)             
1 49044U 21066A   26169.15704105  .00009674  00000+0  18166-3 0  9993
2 49044  51.6334 295.2921 0004743 200.3344 159.7456 15.49293017571145
FREGAT DEB              
1 49271U 11037PF  26151.14915702  .00018955  00000+0  30994-1 0  9992
2 49271  51.6227  53.0895 0914379 245.3590 104.9405 12.41880577222933
CSS (WENTIAN)           
1 53239U 22085A   26169.19275359  .00019911  00000+0  23482-3 0  9996
2 53239  41.4698 315.8819 0007397  85.5010 274.6674 15.60850984288231
CSS (MENGTIAN)          
1 54216U 22143A   26169.19275359  .00019911  00000+0  23482-3 0  9997
2 54216  41.4698 315.8819 0007397  85.5010 274.6674 15.60850984293918
HRC MONOBLOCK CAMERA    
1 66052U 98067XR  26168.51893428  .00065438  00000+0  44952-3 0  9994
2 66052  51.6246 277.4696 0001644 299.3044  60.7791 15.74052121 38056
SZ-21 MODULE            
1 66515U 25246C   26168.53256850  .00038762  00000+0  23828-3 0  9990
2 66515  41.4742 305.1743 0006303 350.6233   9.4493 15.76430582 33796
SOYUZ-MS 28             
1 66664U 25275A   26169.15704105  .00009674  00000+0  18166-3 0  9996
2 66664  51.6334 295.2921 0004743 200.3344 159.7456 15.49293017571243
DUPLEX                  
1 66906U 98067XS  26168.50000604  .00030599  00000+0  34019-3 0  9990
2 66906  51.6285 287.8925 0003240 208.6085 151.4731 15.62606456 30708
ISS OBJECT XY           
1 66912U 98067XY  26168.53840508  .00464559  10291-3  93027-3 0  9993
2 66912  51.6174 272.2153 0011402 325.9089  34.1186 15.99065949 30908
KNACKSAT-2              
1 67683U 98067XZ  26168.60673955  .00040994  00000+0  49993-3 0  9996
2 67683  51.6314 292.3670 0009088 217.1010 142.9356 15.60014370 20344
CORAL                   
1 67684U 98067YA  26168.45036060  .00178457  00000+0  10673-2 0  9998
2 67684  51.6237 286.7742 0008645 258.9874 101.0154 15.76735945 20409
GXIBA-1                 
1 67685U 98067YB  26168.60857589  .00048579  00000+0  55506-3 0  9999
2 67685  51.6287 291.6248 0010212 215.4722 144.5594 15.61624235 20351
UITMSAT-2               
1 67686U 98067YC  26169.32189269  .00066059  00000+0  65910-3 0  9996
2 67686  51.6271 286.6357 0005378 214.1379 145.9271 15.65001223 20482
LEOPARD                 
1 67687U 98067YD  26168.89070043  .00046259  00000+0  54179-3 0  9992
2 67687  51.6315 290.5236 0006210 198.4757 161.6012 15.61042176 20310
HMU-SAT2                
1 67688U 98067YE  26168.60948560  .00057682  00000+0  61556-3 0  9999
2 67688  51.6297 290.8881 0005760 204.4350 155.6373 15.63349670 20285
CREW DRAGON 12          
1 67796U 26031A   26169.15704105  .00009674  00000+0  18166-3 0  9994
2 67796  51.6334 295.2921 0004743 200.3344 159.7456 15.49293017571677
PROGRESS-MS 33          
1 68319U 26058A   26169.15704105  .00009674  00000+0  18166-3 0  9995
2 68319  51.6334 295.2921 0004743 200.3344 159.7456 15.49293017571297
CYGNUS NG-24            
1 68689U 26079A   26169.15704105  .00009674  00000+0  18166-3 0  9998
2 68689  51.6334 295.2921 0004743 200.3344 159.7456 15.49293017571826
PROGRESS-MS 34          
1 68837U 26093A   26169.15704105  .00009674  00000+0  18166-3 0  9999
2 68837  51.6334 295.2921 0004743 200.3344 159.7456 15.49293017571876
TIANZHOU-10             
1 69049U 26102A   26169.19275359  .00019911  00000+0  23482-3 0  9996
2 69049  41.4698 315.8819 0007397  85.5010 274.6674 15.60850984  6000
DRAGON CRS-34           
1 69103U 26107A   26167.47994787  .00006936  00000+0  13276-3 0  9997
2 69103  51.6336 303.5935 0004796 192.9278 167.1588 15.49257994571674
SHENZHOU-23 (SZ-23)     
1 69180U 26113A   26169.19275359  .00019911  00000+0  23482-3 0  9994
2 69180  41.4698 315.8819 0007397  85.5010 274.6674 15.60850984293644
